[{"OBJECT_NAME":"NUSAT-35 (WILLIAMINA)","OBJECT_ID":"2023-001AR","EPOCH":"2026-03-09T22:28:40.425600","MEAN_MOTION":15.3245616,"ECCENTRICITY":0.00136635,"INCLINATION":97.1993,"RA_OF_ASC_NODE":124.278,"ARG_OF_PERICENTER":97.0313,"MEAN_ANOMALY":263.2484,"EPHEMERIS_TYPE":0,"CLASSIFICATION_TYPE":"U","NORAD_CAT_ID":55048,"ELEMENT_SET_NO":999,"REV_AT_EPOCH":17719,"BSTAR":0.00053479647,"MEAN_MOTION_DOT":0.0001675,"MEAN_MOTION_DDOT":0},{"OBJECT_NAME":"STARLINK-33621","OBJECT_ID":"2025-063N","EPOCH":"2026-03-09T22:20:22.551648","MEAN_MOTION":15.30221212,"ECCENTRICITY":0.0001866,"INCLINATION":53.1606,"RA_OF_ASC_NODE":48.6935,"ARG_OF_PERICENTER":96.4994,"MEAN_ANOMALY":263.622,"EPHEMERIS_TYPE":0,"CLASSIFICATION_TYPE":"U","NORAD_CAT_ID":63375,"ELEMENT_SET_NO":999,"REV_AT_EPOCH":5478,"BSTAR":0.0013593555,"MEAN_MOTION_DOT":0.00040146,"MEAN_MOTION_DDOT":0}]
